GORIZONT 1 [-]          
1 11158U 78118A   22193.49284432 -.00000036  00000+0  00000+0 0  9992
2 11158  11.0941 204.4813 3478855 282.4790  41.2103  1.00300326108542
GORIZONT 2 [-]          
1 11440U 79062A   22194.73866659  .00000052  00000+0  00000+0 0  9997
2 11440   9.2258 301.5464 0002057 221.3968  94.5319  1.00265795123626
GORIZONT 3 [-]          
1 11648U 79105A   22192.91046456  .00000128  00000+0  00000+0 0  9992
2 11648   9.3884 302.9938 0013853 207.8855 154.5838  1.00318721108087
GORIZONT 4 [-]          
1 11841U 80049A   22193.60625730 -.00000176  00000+0  00000+0 0  9995
2 11841  10.5347 308.7170 0001287 142.9394 235.6841  0.98631737219367
GORIZONT 5 [-]          
1 13092U 82020A   22193.47716269  .00000018  00000+0  00000+0 0  9993
2 13092  11.5219 313.9868 0034177 209.6888 188.4823  0.98530651107455
GORIZONT 6 [-]          
1 13624U 82103A   22194.56215600  .00000094  00000+0  00000+0 0  9994
2 13624  10.4383 314.0040 0003106 163.8520 204.3493  1.00263590106563
GORIZONT 7 [-]          
1 14160U 83066A   22194.45332914 -.00000024  00000+0  00000+0 0  9999
2 14160  12.0892 323.2895 0008192 317.4006  42.6719  0.98347409140636
GORIZONT 8 [-]          
1 14532U 83118A   22194.28933240 -.00000164  00000+0  00000+0 0  9995
2 14532  12.2603 325.1326 0030942 147.6874  48.9654  0.98270776106401
GORIZONT 9 [-]          
1 14940U 84041A   22194.58207260 -.00000253  00000+0  00000+0 0  9992
2 14940  11.4531 323.1842 0004578 197.1912  72.5643  1.00241013107559
GORIZONT 10 [-]         
1 15144U 84078A   22194.52299153  .00000097  00000+0  00000+0 0  9990
2 15144  11.5457 324.2095 0001742 120.7070 253.3095  1.00188941140190
GORIZONT 11 [-]         
1 15484U 85007A   22193.91431462 -.00000039  00000+0  00000+0 0  9990
2 15484  11.7249 326.1834 0005156 143.6237 215.5519  1.00393090138238
GORIZONT 12 [-]         
1 16769U 86044A   22194.86158510 -.00000140  00000+0  00000+0 0  9997
2 16769  12.3314 331.5244 0001771 156.4040 194.0378  1.00197662132890
GORIZONT 13 [-]         
1 17083U 86090A   22193.65362782 -.00000160  00000+0  00000+0 0  9994
2 17083  14.1974 338.6686 0012358 345.9353  18.2563  0.96727368104769
GORIZONT 14 [-]         
1 17969U 87040A   22194.78657399 -.00000079  00000+0  00000+0 0  9998
2 17969  13.1588 330.0975 0032373 170.4124 175.1283  0.97658316105844
GORIZONT 15 [-]         
1 19017U 88028A   22194.59258248 -.00000115  00000+0  00000+0 0  9991
2 19017  14.4770 341.5076 0038747 152.6122 218.9342  0.97827869105457
GORIZONT 16 [-]         
1 19397U 88071A   22194.25802743 -.00000266  00000+0  00000+0 0  9995
2 19397  13.3300 340.1970 0015473  66.4493 306.9649  0.99985599123890
GORIZONT 17 [-]         
1 19765U 89004A   22193.68781038 -.00000236  00000+0  00000+0 0  9997
2 19765  13.8700 343.5340 0024794 129.3604  53.1875  0.99069159121351
GORIZONT 18 [-]         
1 20107U 89052A   22194.25532422 -.00000277  00000+0  00000+0 0  9992
2 20107  13.9092 344.7923 0032734 318.7328  34.8207  0.99402860120149
GORIZONT 19 [-]         
1 20263U 89081A   22194.48812212  .00000106  00000+0  00000+0 0  9990
2 20263  13.6402 343.9874 0003196 172.7695 353.7086  1.00320313 32959
GORIZONT 20 [-]         
1 20659U 90054A   22194.59305234 -.00000299  00000+0  00000+0 0  9998
2 20659  14.0701 346.8171 0007046 156.8491  96.9434  1.00289936117303
GORIZONT 21 [-]         
1 20923U 90094A   22194.45777637 -.00000113  00000+0  00000+0 0  9996
2 20923  14.0813 347.5888 0004523 183.4746 176.5870  1.00388653116056
GORIZONT 22 [-]         
1 20953U 90102A   22194.28958910 -.00000309  00000+0  00000+0 0  9992
2 20953  14.0394 347.9571 0003239  40.5214 145.2814  1.00295905115981
GORIZONT 23 [-]         
1 21533U 91046A   22194.66083230 -.00000138  00000+0  00000+0 0  9991
2 21533  14.7894 352.0857 0002390 346.2236  21.5835  0.98910558106544
GORIZONT 24 [-]         
1 21759U 91074A   22194.69178845 -.00000228  00000+0  00000+0 0  9992
2 21759  14.9392 353.9796 0016694 219.7907 312.0496  0.98445440110912
GORIZONT 25 [-]         
1 21922U 92017A   22193.92213816 -.00000107  00000+0  00000+0 0  9991
2 21922  14.4831 353.3288 0030442  81.4173 271.9813  0.99842193110602
GORIZONT 26 [-]         
1 22041U 92043A   22193.55505744  .00000044  00000+0  00000+0 0  9995
2 22041  14.6487 355.3241 0029142 231.0127 306.0152  0.99242208109225
GORIZONT 27 [-]         
1 22245U 92082A   22194.42735595 -.00000300  00000+0  00000+0 0  9996
2 22245  14.5658 354.9254 0012256  17.7296 171.4745  1.00149473112749
GORIZONT 28 [-]         
1 22880U 93069A   22194.27827346 -.00000294  00000+0  00000+0 0  9998
2 22880  14.6959 358.7775 0035778 129.0281 228.1121  0.99656770104822
GORIZONT 29 [-]         
1 22907U 93072A   22194.78794404  .00000067  00000+0  00000+0 0  9993
2 22907  14.6088 358.2439 0009512 356.8867 239.6546  1.00147082104837
GORIZONT 30 [-]         
1 23108U 94030A   22194.29569361 -.00000290  00000+0  00000+0 0  9999
2 23108  14.6199 359.1582 0002863 124.0977  55.8348  1.00297499103073
GORIZONT 31 [-]         
1 23775U 96005A   22194.32552861 -.00000304  00000+0  00000+0 0  9990
2 23775  14.5132   5.3476 0017909 196.1499 154.5041  0.99893068 96717
GORIZONT 32 [-]         
1 23880U 96034A   22194.60623729  .00000022  00000+0  00000+0 0  9998
2 23880  14.4600   5.8671 0008582   2.1257  15.0706  1.00149029 95666
GORIZONT 33 [-]         
1 26372U 00029A   22194.30257775 -.00000285  00000+0  00000+0 0  9999
2 26372  13.1434  17.0120 0004942  87.5179 254.6917  1.00330841 81031
